ONEWEB-0168             
1 48068U 21025AC  24070.86309953 -.00000237  00000+0 -68503-3 0  9990
2 48068  87.8949 125.0974 0002020 102.9576 257.1778 13.13471198144829
ONEWEB-0173             
1 48069U 21025AD  24070.85515844 -.00000292  00000+0 -83345-3 0  9990
2 48069  87.8950 125.1098 0001750 107.9520 252.1800 13.13469557145067
ONEWEB-0171             
1 48070U 21025AE  24070.89165786  .00000175  00000+0  44527-3 0  9999
2 48070  87.8950 125.1375 0001857  99.4803 260.6536 13.13469203144881
ONEWEB-0172             
1 48071U 21025AF  24070.87102318 -.00000247  00000+0 -71010-3 0  9999
2 48071  87.8950 125.1080 0001783 100.2193 259.9137 13.13469555145773
ONEWEB-0174             
1 48072U 21025AG  24070.39650856 -.00000121  00000+0 -36738-3 0  9991
2 48072  87.8950 125.2169 0002132 103.3495 256.7872 13.13469435145038
ONEWEB-0175             
1 48073U 21025AH  24070.88213445 -.00000080  00000+0 -25470-3 0  9990
2 48073  87.8943 125.1147 0001726  89.8615 270.2712 13.13469484144752
ONEWEB-0177             
1 48074U 21025AJ  24070.89483024  .00000189  00000+0  48325-3 0  9996
2 48074  87.8946 125.1185 0001906 113.4350 246.6980 13.13469106144944
ONEWEB-0178             
1 48075U 21025AK  24070.91243543  .00000308  00000+0  80765-3 0  9997
2 48075  87.8957 125.1262 0001911 107.0464 253.0874 13.13469317144997
